ONEWEB-0564             
1 55801U 23029F   25089.50287545  .00000072  00000+0  14609-3 0  9996
2 55801  87.9338   2.7914 0001929  91.4109 268.7246 13.20769624102588
ONEWEB-0638             
1 55802U 23029G   25089.55027370  .00000182  00000+0  45625-3 0  9994
2 55802  87.9093  17.9840 0002347  85.4897 274.6500 13.14502602101116
ONEWEB-0639             
1 55803U 23029H   25089.57947989  .00000034  00000+0  53780-4 0  9992
2 55803  87.9243  33.1501 0002554  53.6266 306.5102 13.19728323100392
ONEWEB-0640             
1 55804U 23029J   25089.55979189  .00000285  00000+0  73363-3 0  9994
2 55804  87.9089  17.9719 0002638  77.6743 282.4682 13.14504118101138
ONEWEB-0641             
1 55805U 23029K   25089.57474602  .00000048  00000+0  87012-4 0  9991
2 55805  87.9239  33.1251 0001959  72.5703 287.5644 13.19727779100400
ONEWEB-0642             
1 55806U 23029L   25089.57000872  .00000120  00000+0  26700-3 0  9993
2 55806  87.9241  33.1603 0002115  51.7645 308.3677 13.19728665100395
ONEWEB-0643             
1 55807U 23029M   25089.52964704 -.00000057  00000+0 -18927-3 0  9995
2 55807  87.9089  17.9588 0001640  52.7573 307.3706 13.14502865101100
ONEWEB-0644             
1 55808U 23029N   25089.56526503  .00000061  00000+0  11891-3 0  9997
2 55808  87.9244  33.1632 0001972  62.7162 297.4172 13.19729120100393
